NORAD_CAT_ID,OBJECT_NAME,OBJECT_TYPE,EPOCH,MEAN_MOTION,ECCENTRICITY,INCLINATION,RA_OF_ASC_NODE,ARG_OF_PERICENTER,MEAN_ANOMALY,BSTAR,MEAN_MOTION_DOT,MEAN_MOTION_DDOT,TLE_LINE0,TLE_LINE1,TLE_LINE2,SEMIMAJOR_AXIS,PERIOD,APOGEE,PERIGEE,DECAYED
54772.0,TBA - TO BE ASSIGNED,UNKNOWN,2022-12-27 18:00:00,15.77947494,0.0001523,53.2177,256.9945,35.5045,246.5203,-0.0077962,-0.01196845,0.0,0 TBA - TO BE ASSIGNED,1 54772U 22175Q   22361.75001157 -.01196845  00000-0 -77962-2 0  9991,2 54772  53.2177 256.9945 0001523  35.5045 246.5203 15.77947494  1308,6714.394,91.258,337.281,335.236,
54772.0,TBA - TO BE ASSIGNED,UNKNOWN,2022-12-27 22:00:00,15.77471019,0.0001561,53.2175,256.1647,34.1089,115.1125,-0.0075174,-0.01136649,0.0,0 TBA - TO BE ASSIGNED,1 54772U 22175Q   22361.91667824 -.01136649  00000-0 -75174-2 0  9997,2 54772  53.2175 256.1647 0001561  34.1089 115.1125 15.77471019  1301,6715.746,91.285,338.659,336.5619999999999,
54772.0,STARLINK-5452,PAYLOAD,2022-12-28 14:00:01,15.75774959,0.0001386999999999,53.2172,252.848,33.0359,302.2788,-0.008563,-0.01193015,0.0,0 STARLINK-5452,1 54772U 22175Q   22362.58334491 -.01193015  00000-0 -85630-2 0  9990,2 54772  53.2172 252.8480 0001387  33.0359 302.2788 15.75774959  1301,6720.564,91.384,343.361,341.497,0.0
54772.0,STARLINK-5452,PAYLOAD,2022-12-28 18:00:00,15.75341229,0.0001584,53.2176,252.0207,41.7716,159.4176,-0.0087186,-0.01191858,0.0,0 STARLINK-5452,1 54772U 22175Q   22362.75001157 -.01191858  00000-0 -87186-2 0  9990,2 54772  53.2176 252.0207 0001584  41.7716 159.4176 15.75341229  1455,6721.797,91.409,344.727,342.598,0.0
54772.0,STARLINK-5452,PAYLOAD,2022-12-28 22:00:00,15.74845717,0.000134,53.2172,251.1949,47.1371,19.6933,-0.0082117,-0.01107996,0.0,0 STARLINK-5452,1 54772U 22175Q   22362.91667824 -.01107996  00000-0 -82117-2 0  9996,2 54772  53.2172 251.1949 0001340  47.1371  19.6933 15.74845717  1303,6723.206999999999,91.438,345.973,344.171,0.0
54772.0,STARLINK-5452,PAYLOAD,2022-12-29 14:00:01,15.73223118,0.0001435,53.2173,247.8899,48.6612,198.066,-0.00022816,-0.00032549,0.0,0 STARLINK-5452,1 54772U 22175Q   22363.58334491 -.00032549  00000-0 -22816-3 0  9992,2 54772  53.2173 247.8899 0001435  48.6612 198.0660 15.73223118  1302,6727.829000000002,91.532,350.66,348.72900000000016,0.0
54772.0,STARLINK-5452,PAYLOAD,2022-12-29 16:00:00,15.73200935,0.0001419,53.2176,247.4776,51.5054,307.4649,3.9021e-05,4.86e-05,0.0,0 STARLINK-5452,1 54772U 22175Q   22363.66667824  .00004860  00000-0  39021-4 0  9990,2 54772  53.2176 247.4776 0001419  51.5054 307.4649 15.73200935  1608,6727.893,91.533,350.712,348.80300000000005,0.0
54772.0,STARLINK-5452,PAYLOAD,2022-12-30 00:00:00,15.73240501,9.98e-05,53.2147,245.8333,64.3163,23.6423,-0.00029325,-0.00041642,0.0,0 STARLINK-5452,1 54772U 22175Q   22364.00001157 -.00041642  00000-0 -29325-3 0  9996,2 54772  53.2147 245.8333 0000998  64.3163  23.6423 15.73240501  1656,6727.78,91.531,350.316,348.973,0.0
54772.0,STARLINK-5452,PAYLOAD,2022-12-30 14:00:01,15.73177297,0.0001115,53.2146,242.9441,83.0616,70.5792,0.00085589,0.00121126,0.0,0 STARLINK-5452,1 54772U 22175Q   22364.58334491  .00121126  00000-0  85589-3 0  9997,2 54772  53.2146 242.9441 0001115  83.0616  70.5792 15.73177297  1309,6727.96,91.535,350.575,349.075,0.0
54772.0,STARLINK-5452,PAYLOAD,2022-12-30 16:00:00,15.73215784,0.0001121,53.215,242.5318,84.1044,181.7597,0.00054751,0.00076978,0.0,0 STARLINK-5452,1 54772U 22175Q   22364.66667824  .00076978  00000-0  54751-3 0  9996,2 54772  53.2150 242.5318 0001121  84.1044 181.7597 15.73215784  1758,6727.85,91.532,350.469,348.961,0.0
54772.0,STARLINK-5452,PAYLOAD,2022-12-31 00:00:00,15.73190625,0.0001372,53.2174,240.8817,87.0479,267.6621,0.00016653,0.00022805,0.0,0 STARLINK-5452,1 54772U 22175Q   22365.00001157  .00022805  00000-0  16653-3 0  9995,2 54772  53.2174 240.8817 0001372  87.0479 267.6621 15.73190625  1816,6727.922,91.534,350.71,348.86400000000015,0.0
54772.0,STARLINK-5452,PAYLOAD,2022-12-31 08:00:01,15.73214686,0.0001299,53.2149,239.2337,74.8335,8.9172,-0.00012821,-0.00018585,0.0,0 STARLINK-5452,1 54772U 22175Q   22365.33334491 -.00018585  00000-0 -12821-3 0  9996,2 54772  53.2149 239.2337 0001299  74.8335   8.9172 15.73214686  1866,6727.853,91.532,350.592,348.844,0.0
54772.0,STARLINK-5452,PAYLOAD,2022-12-31 14:00:01,15.73197389,0.0001284999999999,53.2149,237.9956,82.5189,337.9196,1.7612e-05,1.852e-05,0.0,0 STARLINK-5452,1 54772U 22175Q   22365.58334491  .00001852  00000-0  17612-4 0  9994,2 54772  53.2149 237.9956 0001285  82.5189 337.9196 15.73197389  1306,6727.903,91.533,350.63199999999995,348.903,0.0
54772.0,STARLINK-5452,PAYLOAD,2022-12-31 22:00:00,15.73169348,0.0001095999999999,53.2146,236.348,70.0736,79.2995,-0.00017304,-0.000248,0.0,0 STARLINK-5452,1 54772U 22175Q   22365.91667824 -.00024800  00000-0 -17304-3 0  9997,2 54772  53.2146 236.3480 0001096  70.0736  79.2995 15.73169348  1305,6727.983,91.535,350.585,349.11,0.0
54772.0,STARLINK-5452,PAYLOAD,2023-01-01 00:00:00,15.73132866,0.0001118,53.2146,235.9362,67.4038,194.2005,0.00038193,0.00053167,0.0,0 STARLINK-5452,1 54772U 22175Q   23001.00001157  .00053167  00000-0  38193-3 0  9991,2 54772  53.2146 235.9362 0001118  67.4038 194.2005 15.73132866  1966,6728.087,91.537,350.704,349.199,0.0
54772.0,STARLINK-5452,PAYLOAD,2023-01-01 10:00:00,15.73120242,9.95e-05,53.2145,233.8726,79.2,23.4908,0.00033408,0.00046365,0.0,0 STARLINK-5452,1 54772U 22175Q   23001.41667824  .00046365  00000-0  33408-3 0  9991,2 54772  53.2145 233.8726 0000995  79.2000  23.4908 15.73120242  2037,6728.123000000001,91.538,350.657,349.3180000000001,0.0
54772.0,STARLINK-5452,PAYLOAD,2023-01-01 14:00:01,15.73116001,0.0001127,53.2145,233.0473,83.4371,243.6811,0.00074104,0.00104303,0.0,0 STARLINK-5452,1 54772U 22175Q   23001.58334491  .00104303  00000-0  74104-3 0  9995,2 54772  53.2145 233.0473 0001127  83.4371 243.6811 15.73116001  1300,6728.135,91.538,350.7580000000001,349.241,0.0
54772.0,STARLINK-5452,PAYLOAD,2023-01-02 00:00:00,15.73182555,0.0001211999999999,53.2148,230.9879,69.6701,98.5611,0.00067868,0.00095647,0.0,0 STARLINK-5452,1 54772U 22175Q   23002.00001157  .00095647  00000-0  67868-3 0  9992,2 54772  53.2148 230.9879 0001212  69.6701  98.5611 15.73182555  1309,6727.945,91.534,350.625,348.994,0.0
54772.0,STARLINK-5452,PAYLOAD,2023-01-02 02:20:16,15.73167871,0.0002496,53.2145,230.5045,65.5793,294.5487,0.00037935,0.00052886,0.0,0 STARLINK-5452,1 54772U 22175Q   23002.09741023  .00052886  00000-0  37935-3 0  9994,2 54772  53.2145 230.5045 0002496  65.5793 294.5487 15.73167871  2144,6727.986999999999,91.535,351.531,348.172,0.0
54772.0,STARLINK-5452,PAYLOAD,2023-01-02 14:32:05,15.73251945,0.0001736,53.2141,227.9903,88.8639,271.258,0.00014084,0.00019235,0.0,0 STARLINK-5452,1 54772U 22175Q   23002.60561754  .00019235  00000-0  14084-3 0  9993,2 54772  53.2141 227.9903 0001736  88.8639 271.2580 15.73251945  2227,6727.746999999999,91.53,350.78,348.444,0.0
54772.0,STARLINK-5452,PAYLOAD,2023-01-02 16:03:34,15.73250203,0.0001517,53.2142,227.6763,72.7632,287.3554,0.00021171,0.00029259,0.0,0 STARLINK-5452,1 54772U 22175Q   23002.66914454  .00029259  00000-0  21171-3 0  9990,2 54772  53.2142 227.6763 0001517  72.7632 287.3554 15.73250203  4396,6727.752,91.53,350.63800000000015,348.596,0.0
54772.0,STARLINK-5452,PAYLOAD,2023-01-02 22:09:20,15.74025929,0.0011315,53.2139,226.4178,200.1735,159.884,0.0055955,0.00907776,0.0,0 STARLINK-5452,1 54772U 22175Q   23002.92314981  .00907776  00000-0  55955-2 0  9993,2 54772  53.2139 226.4178 0011315 200.1735 159.8840 15.74025929  2279,6725.541,91.485,355.016,339.796,0.0
54772.0,STARLINK-5452,PAYLOAD,2023-01-03 02:43:55,15.73210899,8.590000000000001e-05,53.2141,225.4749,43.9071,316.2018,0.00023609,0.00032658,0.0,0 STARLINK-5452,1 54772U 22175Q   23003.11383820  .00032658  00000-0  23609-3 0  9993,2 54772  53.2141 225.4749 0000859  43.9071 316.2018 15.73210899  2303,6727.864000000001,91.533,350.307,349.151,0.0
54772.0,STARLINK-5452,PAYLOAD,2023-01-03 17:58:43,15.73228705,7.97e-05,53.2136,222.3314,62.5173,297.5929,0.00042133,0.00059,0.0,0 STARLINK-5452,1 54772U 22175Q   23003.74911875  .00059000  00000-0  42133-3 0  9992,2 54772  53.2136 222.3314 0000797  62.5173 297.5929 15.73228705  2400,6727.813,91.532,350.215,349.142,0.0
54772.0,STARLINK-5452,PAYLOAD,2023-01-04 01:36:07,15.73228494,0.0001447,53.2138,220.759,202.6567,157.4389,0.00023424,0.00032421,0.0,0 STARLINK-5452,1 54772U 22175Q   23004.06675236  .00032421  00000-0  23424-3 0  9996,2 54772  53.2138 220.7590 0001447 202.6567 157.4389 15.73228494  2451,6727.814,91.532,350.652,348.705,0.0
54772.0,STARLINK-5452,PAYLOAD,2023-01-04 07:42:02,15.73246413,8.690000000000001e-05,53.2135,219.5013,79.8773,280.2345,0.00056608,0.00079741,0.0,0 STARLINK-5452,1 54772U 22175Q   23004.32086580  .00079741  00000-0  56608-3 0  9999,2 54772  53.2135 219.5013 0000869  79.8773 280.2345 15.73246413  4656,6727.763000000001,91.53,350.212,349.043,0.0
54772.0,STARLINK-5452,PAYLOAD,2023-01-04 22:56:50,15.73241551,1.7199999999999998e-05,53.2129,216.358,163.2301,196.8725,0.00043443,0.00060902,0.0,0 STARLINK-5452,1 54772U 22175Q   23004.95614199  .00060902  00000-0  43443-3 0  9993,2 54772  53.2129 216.3580 0000172 163.2301 196.8725 15.73241551  2598,6727.776999999999,91.531,349.75699999999995,349.526,0.0
54772.0,STARLINK-5452,PAYLOAD,2023-01-05 06:34:15,15.73190717,5.34e-05,53.2129,214.786,53.3865,306.7204,0.00035173,0.00049012,0.0,0 STARLINK-5452,1 54772U 22175Q   23005.27378914  .00049012  00000-0  35173-3 0  9991,2 54772  53.2129 214.7860 0000534  53.3865 306.7204 15.73190717  2644,6727.922,91.534,350.146,349.427,0.0
54772.0,STARLINK-5452,PAYLOAD,2023-01-05 14:11:39,15.73210264,8.590000000000001e-05,53.2125,213.2148,72.6289,287.4825,0.00036081,0.00050343,0.0,0 STARLINK-5452,1 54772U 22175Q   23005.59143258  .00050343  00000-0  36081-3 0  9995,2 54772  53.2125 213.2148 0000859  72.6289 287.4825 15.73210264  4856,6727.866,91.533,350.309,349.153,0.0
